IRIDIUM 144             
1 43249U 18030A   25248.50527081 -.00000023  00000+0 -15180-4 0  9998
2 43249  86.3939  49.3964 0002087  91.5722 268.5713 14.34216529389335
IRIDIUM 149             
1 43250U 18030B   25248.51161265  .00000016  00000+0 -12750-5 0  9991
2 43250  86.3936  49.3638 0002135  90.4240 269.7200 14.34217408389352
IRIDIUM 157             
1 43251U 18030C   25248.53064033  .00000037  00000+0  61105-5 0  9999
2 43251  86.3939  49.4025 0001971  86.9750 273.1672 14.34217738389336
IRIDIUM 140             
1 43252U 18030D   25248.54966897 -.00000030  00000+0 -17736-4 0  9995
2 43252  86.3938  49.4082 0002142  94.1714 265.9727 14.34217226389399
IRIDIUM 145             
1 43253U 18030E   25248.53698316  .00000092  00000+0  25793-4 0  9991
2 43253  86.3938  49.3859 0002534  89.7820 270.3666 14.34218390389322
IRIDIUM 146             
1 43254U 18030F   25248.51795657  .00000047  00000+0  95538-5 0  9991
2 43254  86.3939  49.4070 0002460  90.1984 269.9493 14.34216781389330
IRIDIUM 148             
1 43255U 18030G   25248.48624176  .00000054  00000+0  12246-4 0  9997
2 43255  86.3938  49.4591 0002161  86.7690 273.3753 14.34217996389361
IRIDIUM 142             
1 43256U 18030H   25248.52429992  .00000064  00000+0  15801-4 0  9993
2 43256  86.3936  49.3424 0002620  88.9713 271.1783 14.34217293389330
